[{"OBJECT_NAME":"TIANMU-1 13","OBJECT_ID":"2023-205C","EPOCH":"2026-03-10T00:00:50.036832","MEAN_MOTION":15.25862583,"ECCENTRICITY":0.00064025,"INCLINATION":97.3565,"RA_OF_ASC_NODE":92.1641,"ARG_OF_PERICENTER":331.9635,"MEAN_ANOMALY":28.1258,"EPHEMERIS_TYPE":0,"CLASSIFICATION_TYPE":"U","NORAD_CAT_ID":58647,"ELEMENT_SET_NO":999,"REV_AT_EPOCH":12237,"BSTAR":0.00032666188,"MEAN_MOTION_DOT":8.299e-5,"MEAN_MOTION_DDOT":0},{"OBJECT_NAME":"STARLINK-31504","OBJECT_ID":"2024-056H","EPOCH":"2026-03-09T10:22:15.882528","MEAN_MOTION":15.27566705,"ECCENTRICITY":0.00012247,"INCLINATION":43.0012,"RA_OF_ASC_NODE":232.2747,"ARG_OF_PERICENTER":274.4841,"MEAN_ANOMALY":85.5871,"EPHEMERIS_TYPE":0,"CLASSIFICATION_TYPE":"U","NORAD_CAT_ID":59303,"ELEMENT_SET_NO":999,"REV_AT_EPOCH":11111,"BSTAR":1.9371967e-5,"MEAN_MOTION_DOT":2.71e-6,"MEAN_MOTION_DDOT":0}]
